NORAD_CAT_ID,OBJECT_NAME,OBJECT_TYPE,EPOCH,MEAN_MOTION,ECCENTRICITY,INCLINATION,RA_OF_ASC_NODE,ARG_OF_PERICENTER,MEAN_ANOMALY,BSTAR,MEAN_MOTION_DOT,MEAN_MOTION_DDOT,TLE_LINE0,TLE_LINE1,TLE_LINE2,SEMIMAJOR_AXIS,PERIOD,APOGEE,PERIGEE,DECAYED
53986.0,STARLINK-5119,PAYLOAD,2024-03-05 12:37:08,15.08841339,0.0001054,53.2137,259.5917,83.9163,276.1949,0.00011723,1.578e-05,0.0,0 STARLINK-5119,1 53986U 22125Y   24065.52579306  .00001578  00000-0  11723-3 0  9995,2 53986  53.2137 259.5917 0001054  83.9163 276.1949 15.08841339 78760,6917.876,95.437,540.47,539.012,0.0
53986.0,STARLINK-5119,PAYLOAD,2024-03-05 20:34:04,15.08840501,0.0001217,53.2151,258.104,83.5084,276.6046,4.1517e-05,3.73e-06,0.0,0 STARLINK-5119,1 53986U 22125Y   24065.85699458  .00000373  00000-0  41517-4 0  9999,2 53986  53.2151 258.1040 0001217  83.5084 276.6046 15.08840501 78894,6917.879,95.438,540.586,538.902,0.0
53986.0,STARLINK-5119,PAYLOAD,2024-03-06 12:27:55,15.08838866,8.12e-05,53.2157,255.1292,92.9977,267.1108,3.7829e-05,3.14e-06,0.0,0 STARLINK-5119,1 53986U 22125Y   24066.51939679  .00000314  00000-0  37829-4 0  9991,2 53986  53.2157 255.1292 0000812  92.9977 267.1108 15.08838866 78919,6917.884,95.438,540.311,539.187,0.0
53986.0,STARLINK-5119,PAYLOAD,2024-03-06 18:49:28,15.08846912,0.0001165,53.2161,253.9406,97.079,263.0335,-1.5417e-05,-5.33e-06,0.0,0 STARLINK-5119,1 53986U 22125Y   24066.78435377 -.00000533  00000-0 -15417-4 0  9990,2 53986  53.2161 253.9406 0001165  97.0790 263.0335 15.08846912 78950,6917.859,95.437,540.53,538.918,0.0
53986.0,STARLINK-5119,PAYLOAD,2024-03-08 12:09:30,15.08840252,0.0001262,53.2163,246.2086,89.4031,270.7106,0.00010979,1.46e-05,0.0,0 STARLINK-5119,1 53986U 22125Y   24068.50659819  .00001460  00000-0  10979-3 0  9996,2 53986  53.2163 246.2086 0001262  89.4031 270.7106 15.08840252 79292,6917.88,95.438,540.618,538.872,0.0
53986.0,STARLINK-5119,PAYLOAD,2024-03-08 18:31:02,15.08843806,0.000127,53.2163,245.019,90.2546,269.8592,0.00013004,1.783e-05,0.0,0 STARLINK-5119,1 53986U 22125Y   24068.77155534  .00001783  00000-0  13004-3 0  9990,2 53986  53.2163 245.0190 0001270  90.2546 269.8592 15.08843806 79257,6917.869,95.437,540.612,538.855,0.0
53986.0,STARLINK-5119,PAYLOAD,2024-03-09 12:00:17,15.0883939,0.0001038,53.2171,241.7506,89.095,271.0161,6.8914e-05,8.09e-06,0.0,0 STARLINK-5119,1 53986U 22125Y   24069.50020051  .00000809  00000-0  68914-4 0  9996,2 53986  53.2171 241.7506 0001038  89.0950 271.0161 15.08839390 79369,6917.882,95.438,540.465,539.029,0.0
53986.0,STARLINK-5119,PAYLOAD,2024-03-09 18:21:49,15.08839292,7.64e-05,53.217,240.5583,80.5058,279.602,6.581e-05,7.6e-06,0.0,0 STARLINK-5119,1 53986U 22125Y   24069.76515977  .00000760  00000-0  65810-4 0  9998,2 53986  53.2170 240.5583 0000764  80.5058 279.6020 15.08839292 79482,6917.883,95.438,540.276,539.219,0.0
53986.0,STARLINK-5119,PAYLOAD,2024-03-10 03:54:08,15.08843938,0.0001037,53.2159,238.7741,85.1979,274.9131,8.2787e-05,1.03e-05,0.0,0 STARLINK-5119,1 53986U 22125Y   24070.16259600  .00001030  00000-0  82787-4 0  9995,2 53986  53.2159 238.7741 0001037  85.1979 274.9131 15.08843938 79462,6917.868,95.437,540.451,539.016,0.0
53986.0,STARLINK-5119,PAYLOAD,2024-03-10 19:48:00,15.08835401,9.85e-05,53.217,235.8012,73.5853,286.5247,6.995e-06,-1.76e-06,0.0,0 STARLINK-5119,1 53986U 22125Y   24070.82500569 -.00000176  00000-0  69950-5 0  9990,2 53986  53.2170 235.8012 0000985  73.5853 286.5247 15.08835401 79640,6917.894,95.438,540.441,539.078,0.0
53986.0,STARLINK-5119,PAYLOAD,2024-03-11 19:38:46,15.08844237,0.0001192,53.2173,231.3412,84.1521,275.9607,9.1449e-05,1.168e-05,0.0,0 STARLINK-5119,1 53986U 22125Y   24071.81859930  .00001168  00000-0  91449-4 0  9997,2 53986  53.2173 231.3412 0001192  84.1521 275.9607 15.08844237 79794,6917.867,95.437,540.557,538.908,0.0
53986.0,STARLINK-5119,PAYLOAD,2024-03-12 09:57:15,15.08837772,0.0001435,53.2176,228.6656,86.3193,273.7964,0.00013366,1.84e-05,0.0,0 STARLINK-5119,1 53986U 22125Y   24072.41476338  .00001840  00000-0  13366-3 0  9999,2 53986  53.2176 228.6656 0001435  86.3193 273.7964 15.08837772 79883,6917.887,95.438,540.745,538.759,0.0
53986.0,STARLINK-5119,PAYLOAD,2024-03-13 09:48:02,15.0883709,0.0001374,53.2164,224.2047,81.5057,278.6091,9.1086e-06,-1.43e-06,0.0,0 STARLINK-5119,1 53986U 22125Y   24073.40836670 -.00000143  00000-0  91086-5 0  9991,2 53986  53.2164 224.2047 0001374  81.5057 278.6091 15.08837090 79950,6917.889,95.438,540.705,538.804,0.0
53986.0,STARLINK-5119,PAYLOAD,2024-03-13 16:09:35,15.08838617,0.0001622,53.2122,223.0119,90.9514,269.1664,4.7003e-05,4.6e-06,0.0,0 STARLINK-5119,1 53986U 22125Y   24073.67332668  .00000460  00000-0  47003-4 0  9998,2 53986  53.2122 223.0119 0001622  90.9514 269.1664 15.08838617 80071,6917.885,95.438,540.872,538.628,0.0
53986.0,STARLINK-5119,PAYLOAD,2024-03-14 03:17:16,15.08861615,0.000185,53.2139,220.9322,81.9947,278.1255,-0.00024364,-4.166e-05,0.0,0 STARLINK-5119,1 53986U 22125Y   24074.13699886 -.00004166  00000-0 -24364-3 0  9991,2 53986  53.2139 220.9322 0001850  81.9947 278.1255 15.08861615 80142,6917.814,95.436,540.959,538.4,0.0
53986.0,STARLINK-5119,PAYLOAD,2024-03-14 19:11:07,15.08868046,0.0001674,53.2123,217.9573,88.2963,271.822,-0.00014091,-2.532e-05,0.0,0 STARLINK-5119,1 53986U 22125Y   24074.79938832 -.00002532  00000-0 -14091-3 0  9991,2 53986  53.2123 217.9573 0001674  88.2963 271.8220 15.08868046 80160,6917.795,95.436,540.818,538.502,0.0
53986.0,STARLINK-5119,PAYLOAD,2024-03-15 12:40:22,15.08838283,0.0001683,53.2116,214.6845,104.4543,255.6636,7.5389e-05,9.12e-06,0.0,0 STARLINK-5119,1 53986U 22125Y   24075.52804371  .00000912  00000-0  75389-4 0  9999,2 53986  53.2116 214.6845 0001683 104.4543 255.6636 15.08838283 80355,6917.886,95.438,540.915,538.586,0.0
53986.0,STARLINK-5119,PAYLOAD,2024-03-16 14:06:33,15.0883883,0.0001505,53.2163,209.9302,96.4295,263.6868,-7.8709e-07,-3.01e-06,0.0,0 STARLINK-5119,1 53986U 22125Y   24076.58788727 -.00000301  00000-0 -78709-6 0  9997,2 53986  53.2163 209.9302 0001505  96.4295 263.6868 15.08838830 80432,6917.884,95.438,540.79,538.708,0.0
53986.0,STARLINK-5119,PAYLOAD,2024-03-17 12:21:57,15.08834096,0.0001387,53.2171,205.7702,78.0059,282.1089,7.6538e-05,9.3e-06,0.0,0 STARLINK-5119,1 53986U 22125Y   24077.51525137  .00000930  00000-0  76538-4 0  9997,2 53986  53.2171 205.7702 0001387  78.0059 282.1089 15.08834096 80577,6917.898,95.438,540.723,538.804,0.0
53986.0,STARLINK-5119,PAYLOAD,2024-03-17 15:32:43,15.0883788,0.0001553,53.2177,205.176,94.1716,265.9454,0.00010582,1.396e-05,0.0,0 STARLINK-5119,1 53986U 22125Y   24077.64772818  .00001396  00000-0  10582-3 0  9994,2 53986  53.2177 205.1760 0001553  94.1716 265.9454 15.08837880 80675,6917.887,95.438,540.826,538.678,0.0
53986.0,STARLINK-5119,PAYLOAD,2024-03-18 12:12:44,15.08837979,0.0001597,53.2183,201.3097,99.0648,261.0525,0.00010352,1.36e-05,0.0,0 STARLINK-5119,1 53986U 22125Y   24078.50885006  .00001360  00000-0  10352-3 0  9990,2 53986  53.2183 201.3097 0001597  99.0648 261.0525 15.08837979 80720,6917.887,95.438,540.856,538.647,0.0
53986.0,STARLINK-5119,PAYLOAD,2024-03-19 12:03:31,15.08846799,0.0001607,53.2182,196.8509,110.16,249.9565,8.4655e-05,1.06e-05,0.0,0 STARLINK-5119,1 53986U 22125Y   24079.50244562  .00001060  00000-0  84655-4 0  9992,2 53986  53.2182 196.8509 0001607 110.1600 249.9565 15.08846799 80875,6917.86,95.437,540.836,538.613,0.0
53986.0,STARLINK-5119,PAYLOAD,2024-03-19 15:14:16,15.08873046,0.0001329,53.2173,196.2532,89.301,270.8134,-0.00018726,-3.27e-05,0.0,0 STARLINK-5119,1 53986U 22125Y   24079.63491449 -.00003270  00000-0 -18726-3 0  9996,2 53986  53.2173 196.2532 0001329  89.3010 270.8134 15.08873046 80979,6917.779,95.435,540.564,538.725,0.0
53986.0,STARLINK-5119,PAYLOAD,2024-03-20 07:08:09,15.08835721,0.0001422,53.2172,193.2809,85.8974,274.218,3.9492e-05,3.41e-06,0.0,0 STARLINK-5119,1 53986U 22125Y   24080.29733555  .00000341  00000-0  39492-4 0  9995,2 53986  53.2172 193.2809 0001422  85.8974 274.2180 15.08835721 81075,6917.893,95.438,540.742,538.775,0.0
53986.0,STARLINK-5119,PAYLOAD,2024-03-20 13:29:42,15.08837236,0.0001441,53.217,192.0898,80.2773,279.8382,5.9e-05,6.51e-06,0.0,0 STARLINK-5119,1 53986U 22125Y   24080.56229630  .00000651  00000-0  59000-4 0  9990,2 53986  53.2170 192.0898 0001441  80.2773 279.8382 15.08837236 81039,6917.889,95.438,540.751,538.757,0.0
53986.0,STARLINK-5119,PAYLOAD,2024-03-20 15:05:05,15.08837447,0.0001543,53.2165,191.7924,77.3382,282.7783,5.1245e-05,5.28e-06,0.0,0 STARLINK-5119,1 53986U 22125Y   24080.62853351  .00000528  00000-0  51245-4 0  9996,2 53986  53.2165 191.7924 0001543  77.3382 282.7783 15.08837447 81048,6917.888,95.438,540.821,538.686,0.0
53986.0,STARLINK-5119,PAYLOAD,2024-03-21 13:20:28,15.08847921,0.0001336,53.2155,187.6293,79.7902,280.3241,0.00013181,1.811e-05,0.0,0 STARLINK-5119,1 53986U 22125Y   24081.55588889  .00001811  00000-0  13181-3 0  9992,2 53986  53.2155 187.6293 0001336  79.7902 280.3241 15.08847921 81269,6917.856,95.437,540.645,538.797,0.0
53986.0,STARLINK-5119,PAYLOAD,2024-03-22 13:11:15,15.08864013,0.0001681,53.2167,183.168,91.9378,268.1806,0.00047284,7.25e-05,0.0,0 STARLINK-5119,1 53986U 22125Y   24082.54948041  .00007250  00000-0  47284-3 0  9996,2 53986  53.2167 183.1680 0001681  91.9378 268.1806 15.08864013 81339,6917.807,95.436,540.835,538.509,0.0
53986.0,STARLINK-5119,PAYLOAD,2024-03-22 16:22:01,15.08867011,0.0001692,53.2168,182.5737,93.201,266.9176,0.00052512,8.085e-05,0.0,0 STARLINK-5119,1 53986U 22125Y   24082.68195841  .00008085  00000-0  52512-3 0  9990,2 53986  53.2168 182.5737 0001692  93.2010 266.9176 15.08867011 81434,6917.798,95.436,540.833,538.492,0.0
53986.0,STARLINK-5119,PAYLOAD,2024-03-23 11:26:39,15.08825674,0.0001337,53.2154,179.0047,92.9577,267.1568,-0.00036754,-6.13e-05,0.0,0 STARLINK-5119,1 53986U 22125Y   24083.47685121 -.00006130  00000-0 -36754-3 0  9994,2 53986  53.2154 179.0047 0001337  92.9577 267.1568 15.08825674 81554,6917.924,95.438,540.714,538.864,0.0
